     2              NAVIGATION DATA                         RINEX VERSION / TYPE
CCRINEXN V1.6.0 UX  CDDIS               26-NOV-18 17:31     PGM / RUN BY / DATE 
IGS BROADCAST EPHEMERIS FILE                                COMMENT             
    0.1118D-07 -0.1490D-07 -0.5960D-07  0.1192D-06          ION ALPHA           
    0.9830D+05 -0.1147D+06 -0.1966D+06  0.7209D+06          ION BETA            
   -0.279396772385D-08-0.799360577730D-14   233472     2029 DELTA-UTC: A0,A1,T,W
    18                                                      LEAP SECONDS        
                                                            END OF HEADER       
 1 18 11 25 11 59 44.0-0.119401142001D-03-0.557065504836D-11 0.000000000000D+00
    0.270000000000D+02-0.952812500000D+02 0.392337771014D-08 0.300242317498D+01
   -0.499002635479D-05 0.818463542964D-02 0.112242996693D-04 0.515367045593D+04
    0.431840000000D+05-0.577419996262D-07 0.279189285674D+00-0.122934579849D-06
    0.973714426086D+00 0.170250000000D+03 0.696658560660D+00-0.751281293881D-08
    0.222866426138D-09 0.100000000000D+01 0.202900000000D+04 0.000000000000D+00
    0.200000000000D+01 0.000000000000D+00 0.558793544769D-08 0.270000000000D+02
    0.365880000000D+05 0.400000000000D+01 0.000000000000D+00 0.000000000000D+00
 6 18 11 25 11 59 44.0 0.327587593347D-03-0.659383658785D-11 0.000000000000D+00
    0.200000000000D+01-0.100812500000D+03 0.405016864491D-08-0.294823648744D+01
   -0.514462590218D-05 0.112592533696D-02 0.114832073450D-04 0.515375044823D+04
    0.431840000000D+05 0.167638063431D-07 0.270890522992D+00 0.316649675369D-07
    0.973402837701D+00 0.164375000000D+03-0.121102282046D+01-0.764853247404D-08
    0.207865807900D-09 0.100000000000D+01 0.202900000000D+04 0.000000000000D+00
    0.200000000000D+01 0.000000000000D+00 0.465661287308D-08 0.200000000000D+01
    0.429300000000D+05 0.000000000000D+00 0.000000000000D+00 0.000000000000D+00
16 18 11 25 11 59 44.0-0.304915010929D-05-0.216004991671D-11 0.000000000000D+00
    0.190000000000D+02 0.977500000000D+02 0.411374278247D-08-0.139990573569D+00
    0.528991222382D-05 0.101630182471D-01 0.316649675369D-05 0.515373295975D+04
    0.431840000000D+05 0.502914190292D-07-0.173623620656D+01 0.875443220139D-07
    0.984989170833D+00 0.328750000000D+03 0.519579862655D+00-0.827855912093D-08
    0.309655755548D-09 0.100000000000D+01 0.202900000000D+04 0.000000000000D+00
    0.200000000000D+01 0.000000000000D+00-0.107102096081D-07 0.190000000000D+02
    0.417360000000D+05 0.400000000000D+01 0.000000000000D+00 0.000000000000D+00
17 18 11 25 11 59 44.0-0.269426964223D-04 0.500222085975D-11 0.000000000000D+00
    0.000000000000D+00-0.105593750000D+03 0.431910862630D-08-0.109492938530D+01
   -0.514276325703D-05 0.129117884207D-01 0.319443643093D-05 0.515364611626D+04
    0.431840000000D+05-0.134110450745D-06-0.721110958400D+00 0.234693288803D-06
    0.983658035340D+00 0.330875000000D+03-0.175774953312D+01-0.826570101253D-08
   -0.182150447503D-09 0.100000000000D+01 0.202900000000D+04 0.000000000000D+00
    0.200000000000D+01 0.000000000000D+00-0.111758708954D-07 0.000000000000D+00
    0.364500000000D+05 0.000000000000D+00 0.000000000000D+00 0.000000000000D+00
24 18 11 25 11 59 44.0-0.586560927331D-04-0.568434188608D-12 0.000000000000D+00
    0.400000000000D+01 0.857187500000D+02 0.445089968355D-08-0.290162460392D+01
    0.433996319771D-05 0.769968924578D-02 0.123213976622D-04 0.515362594605D+04
    0.431840000000D+05-0.149011611938D-07-0.291447406587D+01-0.111758708954D-06
    0.940540932916D+00 0.130531250000D+03 0.552980647944D+00-0.781068248913D-08
   -0.381087302387D-09 0.100000000000D+01 0.202900000000D+04 0.000000000000D+00
    0.200000000000D+01 0.000000000000D+00 0.279396772385D-08 0.400000000000D+01
    0.421080000000D+05 0.400000000000D+01 0.000000000000D+00 0.000000000000D+00
29 18 11 25 11 59 44.0 0.328854657710D-03-0.795807864051D-11 0.000000000000D+00
    0.600000000000D+01-0.113750000000D+03 0.422053294499D-08-0.516496733545D+00
   -0.603124499321D-05 0.637036166154D-03 0.247918069363D-05 0.515359894943D+04
    0.431840000000D+05-0.149011611938D-07-0.710250933374D+00 0.502914190292D-07
    0.985036528417D+00 0.348906250000D+03 0.164078236721D+01-0.821391357104D-08
   -0.202508435289D-09 0.100000000000D+01 0.202900000000D+04 0.000000000000D+00
    0.200000000000D+01 0.000000000000D+00-0.102445483208D-07 0.600000000000D+01
    0.424500000000D+05 0.400000000000D+01 0.000000000000D+00 0.000000000000D+00
 1 18 11 25 12  0  0.0-0.119400676340D-03-0.557065504836D-11 0.000000000000D+00
    0.111000000000D+03-0.952812500000D+02 0.392337771014D-08 0.300475690675D+01
   -0.499002635479D-05 0.818462902680D-02 0.112242996693D-04 0.515367044449D+04
    0.432000000000D+05-0.577419996262D-07 0.279189171567D+00-0.124797224999D-06
    0.973714449492D+00 0.170250000000D+03 0.696658611862D+00-0.751281293881D-08
    0.223223583873D-09 0.100000000000D+01 0.202900000000D+04 0.000000000000D+00
    0.280000000000D+01 0.000000000000D+00 0.558793544769D-08 0.111000000000D+03
    0.360180000000D+05 0.400000000000D+01 0.000000000000D+00 0.000000000000D+00
 2 18 11 25 12  0  0.0-0.683469697833D-04-0.104591890704D-10 0.000000000000D+00
    0.670000000000D+02-0.128593750000D+03 0.427910684664D-08-0.294233842160D+01
   -0.659190118313D-05 0.184426606866D-01 0.120066106319D-04 0.515361277389D+04
    0.432000000000D+05 0.322237610817D-06 0.214299909949D+00-0.912696123123D-07
    0.952833264461D+00 0.135812500000D+03-0.181226680064D+01-0.759888774127D-08
    0.202151281825D-09 0.100000000000D+01 0.202900000000D+04 0.000000000000D+00
    0.200000000000D+01 0.000000000000D+00-0.204890966415D-07 0.670000000000D+02
    0.360300000000D+05 0.000000000000D+00 0.000000000000D+00 0.000000000000D+00
 3 18 11 25 12  0  0.0 0.163786113262D-03 0.363797880709D-11 0.000000000000D+00
    0.160000000000D+02 0.185937500000D+02 0.475519801313D-08 0.189121409497D+01
    0.922009348869D-06 0.186992832460D-02 0.774674117565D-05 0.515362875366D+04
    0.432000000000D+05-0.115483999252D-06 0.132173026963D+01-0.186264514923D-08
    0.961434112413D+00 0.229187500000D+03 0.708494735330D+00-0.802211985729D-08
    0.507878294975D-09 0.100000000000D+01 0.202900000000D+04 0.000000000000D+00
    0.200000000000D+01 0.000000000000D+00 0.232830643654D-08 0.160000000000D+02
    0.000000000000D+00 0.000000000000D+00 0.000000000000D+00 0.000000000000D+00
 4 18 11 25 12  0  0.0-0.661900267005D-04-0.208046913031D-10 0.000000000000D+00
    0.670000000000D+02-0.696875000000D+02 0.487341728311D-08-0.906633306494D+00
   -0.350922346115D-05 0.137086086906D-01 0.864267349243D-06 0.515366972160D+04
    0.432000000000D+05 0.348314642906D-06-0.873974397685D+00 0.137835741043D-06
    0.958848450058D+00 0.357812500000D+03 0.578461389319D+00-0.860357265905D-08
   -0.115361948145D-09 0.100000000000D+01 0.202900000000D+04 0.000000000000D+00
    0.200000000000D+01 0.630000000000D+02-0.558793544769D-08 0.670000000000D+02
    0.360180000000D+05 0.400000000000D+01 0.000000000000D+00 0.000000000000D+00
 5 18 11 25 12  0  0.0 0.270083546638D-07 0.227373675443D-12 0.000000000000D+00
    0.860000000000D+02 0.202500000000D+02 0.515557196934D-08-0.375656257237D+00
    0.108964741230D-05 0.559536193032D-02 0.770762562752D-05 0.515357259369D+04
    0.432000000000D+05 0.000000000000D+00 0.129739901029D+01 0.102445483208D-06
    0.948327092030D+00 0.222937500000D+03 0.721320815462D+00-0.828891710825D-08
    0.522164589345D-09 0.100000000000D+01 0.202900000000D+04 0.000000000000D+00
    0.200000000000D+01 0.000000000000D+00-0.111758708954D-07 0.860000000000D+02
    0.360300000000D+05 0.000000000000D+00 0.000000000000D+00 0.000000000000D+00
 6 18 11 25 12  0  0.0 0.327587593347D-03-0.659383658785D-11 0.000000000000D+00
    0.950000000000D+02-0.100812500000D+03 0.405016864491D-08-0.294589598528D+01
   -0.514462590218D-05 0.112592463847D-02 0.114832073450D-04 0.515375045013D+04
    0.432000000000D+05 0.167638063431D-07 0.270890395718D+00 0.316649675369D-07
    0.973402852330D+00 0.164375000000D+03-0.121102968887D+01-0.764853247404D-08
    0.207865807900D-09 0.100000000000D+01 0.202900000000D+04 0.000000000000D+00
    0.200000000000D+01 0.000000000000D+00 0.465661287308D-08 0.950000000000D+02
    0.360300000000D+05 0.000000000000D+00 0.000000000000D+00 0.000000000000D+00
 7 18 11 25 12  0  0.0 0.821407884359D-04-0.693489710102D-11 0.000000000000D+00
    0.100000000000D+03 0.781875000000D+02 0.417553107049D-08 0.237176443996D+01
    0.392273068428D-05 0.120979169151D-01 0.115800648928D-04 0.515363844681D+04
    0.432000000000D+05-0.143423676491D-06-0.285166928697D+01-0.163912773132D-06
    0.957420282135D+00 0.154093750000D+03-0.248248284784D+01-0.767210528827D-08
   -0.297869550319D-09 0.100000000000D+01 0.202900000000D+04 0.000000000000D+00
    0.200000000000D+01 0.000000000000D+00-0.111758708954D-07 0.100000000000D+03
    0.360180000000D+05 0.400000000000D+01 0.000000000000D+00 0.000000000000D+00
 8 18 11 25 12  0  0.0-0.123396050185D-03-0.136424205266D-11 0.000000000000D+00
    0.240000000000D+02-0.875625000000D+02 0.450090176634D-08-0.692375313537D+00
   -0.472180545330D-05 0.383592385333D-02 0.181607902050D-05 0.515365781212D+04
    0.432000000000D+05 0.260770320892D-07-0.786117693803D+00-0.912696123123D-07
    0.969977460369D+00 0.347187500000D+03-0.415150529349D+00-0.835749098019D-08
   -0.119647840956D-09 0.100000000000D+01 0.202900000000D+04 0.000000000000D+00
    0.200000000000D+01 0.000000000000D+00 0.512227416039D-08 0.240000000000D+02
    0.360180000000D+05 0.400000000000D+01 0.000000000000D+00 0.000000000000D+00
